#aV2010  2  8  0  0   .00000000      96 DD+AD WGS84 FIT  NGA
## 1570  86400.00000000   900.00000000 55235  .0000000000000
+   32     1  2  3  4  5  6  7  8  9 10 11 12 13 14 15 16 17
+         18 19 20 21 22 23 24 25 26 27 28 29 30 31 32  0  0
+          0  0  0  0  0  0  0  0  0  0  0  0  0  0  0  0  0
+          0  0  0  0  0  0  0  0  0  0  0  0  0  0  0  0  0
+          0  0  0  0  0  0  0  0  0  0  0  0  0  0  0  0  0
++         0  0  0  0  0  0  0  0  0  0  0  0  0  0  0  0  0
++         0  0  0  0  0  0  0  0  0  0  0  0  0  0  0  0  0
++         0  0  0  0  0  0  0  0  0  0  0  0  0  0  0  0  0
++         0  0  0  0  0  0  0  0  0  0  0  0  0  0  0  0  0
++         0  0  0  0  0  0  0  0  0  0  0  0  0  0  0  0  0
%c cc cc ccc ccc cccc cccc cccc cccc ccccc ccccc ccccc ccccc
%c cc cc ccc ccc cccc cccc cccc cccc ccccc ccccc ccccc ccccc
%f  0.0000000  0.000000000  0.00000000000  0.000000000000000
%f  0.0000000  0.000000000  0.00000000000  0.000000000000000
%i    0    0    0    0      0      0      0      0         0
%i    0    0    0    0      0      0      0      0         0
/*      NGA, ST. LOUIS,MO.                                  
/*   EPHEMERIS COMPUTED FROM  3 DAYS OF DATA                
/* CCCCCCCCCCCCCCCCCCCCCCCCCCCCCCCCCCCCCCCCCCCCCCCCCCCCCCCCC
/* CCCCCCCCCCCCCCCCCCCCCCCCCCCCCCCCCCCCCCCCCCCCCCCCCCCCCCCCC
*  2010  2  8 14 15   .00000000                                                 
P  1 -15249.184435   4647.833173  21128.762243    -86.996805                    
V  1   2121.048685 -26998.282245   7559.575421      -.036797                    
P  2  -8447.060016 -19971.455931  15570.660558    224.476460                    
V  2  17329.702754   9719.249198  21348.057364       .040971                    
P  3   2734.379765  16563.049921 -20878.935164    513.033956                    
V  3 -22833.525564  12285.766965   7220.715609       .051146                    
P  4   6448.591346 -14456.577044  21125.129113     10.091418                    
V  4  22368.404027  15736.629226   4272.285441       .091189                    
P  5  -2911.028386 -25130.414800  -7961.949252     -9.715303                    
V  5   3793.064502  -9760.078667  29575.899943       .027109                    
P  6  -2322.785775  17419.623771 -19703.203693    252.148588                    
V  6 -23506.902066  10092.907421  11705.464682      -.048256                    
P  7  21681.962522   3109.848915 -15140.200645      3.133063                    
V  7  14371.658779  12740.401048  23055.582683      -.005375                    
P  8  14076.296267  -6628.942081 -21628.468395      3.059231                    
V  8  20682.034869  17727.977590   7526.877911       .003910                    
P  9 -20607.554449 -16627.173980  -2970.825312    104.853255                    
V  9   3644.529132    -91.576988 -31843.159741       .022782                    
P 10   2010.580375 -26217.727372  -2110.801157    -34.940329                    
V 10   3602.388450  -2034.837504  31697.847401      -.010400                    
P 11  24430.576958  10909.298167   -483.012671    -44.241524                    
V 11  -2166.209494   4222.093592 -29839.379625      -.022657                    
P 12 -12199.091710 -12857.665078  19883.748493   -152.681876                    
V 12   3949.994297 -24758.346663 -13489.138801       .047683                    
P 13  25315.191454  -4787.935400   6350.214859    306.551925                    
V 13  -7136.218272   4396.507073  31111.215770      -.001525                    
P 14 -19636.605736  14746.987002  10100.373567      9.460793                    
V 14 -12433.636788   2862.363084 -28856.072150       .042909                    
P 15 -10774.811435 -11639.305333 -21295.748041   -308.079163                    
V 15  24422.553130 -11752.457964  -5818.836379       .028278                    
P 16  -2527.933318  26248.211834  -1538.600869    -39.271507                    
V 16  -2966.159326   1638.929680  32073.001358      -.040583                    
P 17  18301.194326 -15786.926502  10853.263395    128.111314                    
V 17  13676.419377  -2849.646334 -27632.800434       .031721                    
P 18 -15634.458750   7452.804453 -19783.061040     47.526222                    
V 18   1977.159108 -25834.157026 -11520.265202       .025568                    
P 19  11857.249147  11397.369891 -20875.833728    -14.431282                    
V 19 -24822.075145   9411.152751  -8659.835157      -.023120                    
P 20  14388.507203   8516.676204  20512.596115     61.694938                    
V 20  -3104.544095  26259.896323  -8609.829810      -.007908                    
P 21 -20106.342378    897.065427 -17326.498223    -39.286974                    
V 21 -16778.451657 -15042.285876  17744.830218      -.025081                    
P 22 -12219.983622  19723.177874 -12698.051571    179.565110                    
V 22   -658.068826 -16721.144555 -25102.267890      -.009197                    
P 23  21460.115435   2453.450778  15629.572303    380.416643                    
V 23 -17513.497157   9282.259996  22253.157355      -.009820                    
P 24 -22516.085388  -7894.706143 -11338.170907    260.677302                    
V 24  -9493.276326 -11507.031324  26906.568887       .031857                    
P 25  23740.159967   7282.481792  -8794.395448     95.271240                    
V 25   8740.960789   8159.049879  29410.883822       .069899                    
P 26 -25069.655677   9461.645416    405.654945    -16.622186                    
V 26  -1605.171606   -966.302150 -32113.817847      -.035227                    
P 27 -20385.362941 -16479.327432  -3915.660076    124.388622                    
V 27   6108.031658   1289.441930 -31533.768317       .033900                    
P 28  12697.964948 -17599.578644 -14633.711594    -22.436875                    
V 28   -594.972726  19627.663589 -23678.587563       .006587                    
P 29 -24618.056978   2670.502070   9652.460474     96.426056                    
V 29  10302.484697  -6900.994899  28486.722125       .029089                    
P 30 -15135.620893   -893.518993  21422.524498    217.727426                    
V 30   1836.861946 -28084.751388    178.985960       .032897                    
P 31  -3576.520311  15445.437713  21498.557718    -52.268765                    
V 31 -21918.294071 -15393.349285   7649.088478       .015290                    
P 32   8891.488620  18324.009777  17572.251040     99.489261                    
V 32  -5572.634256  20809.253250 -18956.116776      -.083119                    
EOF
